NORAD_CAT_ID,OBJECT_NAME,OBJECT_TYPE,EPOCH,MEAN_MOTION,ECCENTRICITY,INCLINATION,RA_OF_ASC_NODE,ARG_OF_PERICENTER,MEAN_ANOMALY,BSTAR,MEAN_MOTION_DOT,MEAN_MOTION_DDOT,TLE_LINE0,TLE_LINE1,TLE_LINE2,SEMIMAJOR_AXIS,PERIOD,APOGEE,PERIGEE,DECAYED
51741.0,STARLINK-3520,PAYLOAD,2022-03-06 22:00:00,15.73250618,0.0001196,53.2177,73.63600000000002,67.9878,319.0546,-0.00043738,-0.00061686,0.0,0 STARLINK-3520,1 51741U 22016AD  22065.91667824 -.00061686  00000-0 -43738-3 0  9994,2 51741  53.2177  73.6360 0001196  67.9878 319.0546 15.73250618  3360,6727.751,91.53,350.421,348.811,0.0
51741.0,STARLINK-3520,PAYLOAD,2022-03-07 06:00:00,15.73190562,0.000146,53.2181,71.9883,65.3869,50.6053,-0.00095295,-0.00132228,0.0,0 STARLINK-3520,1 51741U 22016AD  22066.25001157 -.00132228  00000-0 -95295-3 0  9999,2 51741  53.2181  71.9883 0001460  65.3869  50.6053 15.73190562  3410,6727.922,91.534,350.769,348.805,0.0
51741.0,STARLINK-3520,PAYLOAD,2022-03-07 12:00:00,15.73079209,0.0001419999999999,53.2182,70.752,60.3916,32.2624,0.00048159,0.0006716,0.0,0 STARLINK-3520,1 51741U 22016AD  22066.50001157  .00067160  00000-0  48159-3 0  9994,2 51741  53.2182  70.7520 0001420  60.3916  32.2624 15.73079209  3458,6728.24,91.54,351.06,349.149,0.0
51741.0,STARLINK-3520,PAYLOAD,2022-03-07 22:00:00,15.73106302,0.0001330999999999,53.2184,68.6882,70.4117,223.2656,0.0006986,0.0009818,0.0,0 STARLINK-3520,1 51741U 22016AD  22066.91667824  .00098180  00000-0  69860-3 0  9996,2 51741  53.2184  68.6882 0001331  70.4117 223.2656 15.73106302  2948,6728.1619999999975,91.539,350.923,349.13199999999995,0.0
51741.0,STARLINK-3520,PAYLOAD,2022-03-08 06:00:02,15.73174325,0.000148,53.2183,67.0407,65.0122,317.587,0.00018366,0.00025204,0.0,0 STARLINK-3520,1 51741U 22016AD  22067.25002315  .00025204  00000-0  18366-3 0  9994,2 51741  53.2183  67.0407 0001480  65.0122 317.5870 15.73174325  3579,6727.968000000003,91.535,350.829,348.838,0.0
51741.0,STARLINK-3520,PAYLOAD,2022-03-08 14:00:01,15.73220008,0.0001446,53.2178,65.3913,64.435,47.0127,0.00021483,0.00029662,0.0,0 STARLINK-3520,1 51741U 22016AD  22067.58334491  .00029662  00000-0  21483-3 0  9999,2 51741  53.2178  65.3913 0001446  64.4350  47.0127 15.73220008  3057,6727.8380000000025,91.532,350.676,348.73,0.0
51741.0,STARLINK-3520,PAYLOAD,2022-03-08 20:00:01,15.73230172,0.0001224,53.218,64.1529,73.4403,14.7256,0.00013718,0.000187,0.0,0 STARLINK-3520,1 51741U 22016AD  22067.83334491  .00018700  00000-0  13718-3 0  9990,2 51741  53.2180  64.1529 0001224  73.4403  14.7256 15.73230172  3667,6727.809,91.531,350.49800000000016,348.851,0.0
51741.0,STARLINK-3520,PAYLOAD,2022-03-08 22:00:00,15.73255363,0.0001185,53.218,63.7402,76.686,123.716,-0.00025468,-0.00036293,0.0,0 STARLINK-3520,1 51741U 22016AD  22067.91667824 -.00036293  00000-0 -25468-3 0  9992,2 51741  53.2180  63.7402 0001185  76.6860 123.7160 15.73255363  3103,6727.736999999999,91.53,350.4,348.805,0.0
51741.0,STARLINK-3520,PAYLOAD,2022-03-09 06:00:00,15.73199594,0.0001091,53.2182,62.0927,61.2463,228.1441,-0.00024276,-0.00034548,0.0,0 STARLINK-3520,1 51741U 22016AD  22068.25001157 -.00034548  00000-0 -24276-3 0  9998,2 51741  53.2182  62.0927 0001091  61.2463 228.1441 15.73199594  3738,6727.896,91.533,350.495,349.027,0.0
51741.0,STARLINK-3520,PAYLOAD,2022-03-09 14:00:01,15.73208434,9.92e-05,53.2184,60.4431,55.8405,322.4638,0.00020256,0.00027912,0.0,0 STARLINK-3520,1 51741U 22016AD  22068.58334491  .00027912  00000-0  20256-3 0  9993,2 51741  53.2184  60.4431 0000992  55.8405 322.4638 15.73208434  3208,6727.871,91.533,350.404,349.069,0.0
51741.0,STARLINK-3520,PAYLOAD,2022-03-09 16:00:00,15.73213663,9.64e-05,53.2186,60.03,60.6997,69.8322,0.00012484,0.00016946,0.0,0 STARLINK-3520,1 51741U 22016AD  22068.66667824  .00016946  00000-0  12484-3 0  9990,2 51741  53.2186  60.0300 0000964  60.6997  69.8322 15.73213663  3796,6727.856,91.532,350.37,349.0730000000001,0.0
51741.0,STARLINK-3520,PAYLOAD,2022-03-09 22:00:01,15.73247447,0.0001064,53.2186,58.792,70.8261,36.4778,-0.00018422,-0.00026444,0.0,0 STARLINK-3520,1 51741U 22016AD  22068.91668981 -.00026444  00000-0 -18422-3 0  9997,2 51741  53.2186  58.7920 0001064  70.8261  36.4778 15.73247447  3261,6727.76,91.53,350.341,348.909,0.0
51741.0,STARLINK-3520,PAYLOAD,2022-03-10 14:00:01,15.73198692,0.0001098,53.2178,55.4946,64.0595,221.0925,-8.1209e-05,-0.00011999,0.0,0 STARLINK-3520,1 51741U 22016AD  22069.58334491 -.00011999  00000-0 -81209-4 0  9990,2 51741  53.2178  55.4946 0001098  64.0595 221.0925 15.73198692  3360,6727.899,91.533,350.50300000000016,349.025,0.0
51741.0,STARLINK-3520,PAYLOAD,2022-03-10 20:00:01,15.7317471,8.92e-05,53.2179,54.2562,75.1619,186.6905,0.00069175,0.00097489,0.0,0 STARLINK-3520,1 51741U 22016AD  22069.83334491  .00097489  00000-0  69175-3 0  9991,2 51741  53.2179  54.2562 0000892  75.1619 186.6905 15.73174710  3980,6727.967,91.535,350.432,349.232,0.0
51741.0,STARLINK-3520,PAYLOAD,2022-03-10 22:00:01,15.73207232,9.25e-05,53.2181,53.8437,76.7641,297.3774,0.00037379,0.00052181,0.0,0 STARLINK-3520,1 51741U 22016AD  22069.91668981  .00052181  00000-0  37379-3 0  9995,2 51741  53.2181  53.8437 0000925  76.7641 297.3774 15.73207232  3416,6727.875,91.533,350.362,349.117,0.0
51741.0,STARLINK-3520,PAYLOAD,2022-03-11 04:00:00,15.73256854,8.98e-05,53.2183,52.6083,68.2134,282.5787,-0.00051021,-0.00071786,0.0,0 STARLINK-3520,1 51741U 22016AD  22070.16667824 -.00071786  00000-0 -51021-3 0  9993,2 51741  53.2183  52.6083 0000898  68.2134 282.5787 15.73256854  4037,6727.733,91.53,350.202,348.994,0.0
51741.0,STARLINK-3520,PAYLOAD,2022-03-11 12:00:00,15.73262551,9.33e-05,53.2181,50.9591,57.7993,21.9629,-0.00038284,-0.00054145,0.0,0 STARLINK-3520,1 51741U 22016AD  22070.50001157 -.00054145  00000-0 -38284-3 0  9998,2 51741  53.2181  50.9591 0000933  57.7993  21.9629 15.73262551  4082,6727.717,91.53,350.21,348.954,0.0
51741.0,STARLINK-3520,PAYLOAD,2022-03-11 22:00:00,15.73239276,9.6e-05,53.2185,48.8953,79.5366,201.4352,0.00023267,0.00032213,0.0,0 STARLINK-3520,1 51741U 22016AD  22070.91667824  .00032213  00000-0  23267-3 0  9997,2 51741  53.2185  48.8953 0000960  79.5366 201.4352 15.73239276  4154,6727.783,91.531,350.2940000000001,349.00199999999984,0.0
51741.0,STARLINK-3520,PAYLOAD,2022-03-12 06:00:00,15.73255281,0.0001147,53.2183,47.2479,67.2221,302.7388,-0.00073052,-0.00102146,0.0,0 STARLINK-3520,1 51741U 22016AD  22071.25001157 -.00102146  00000-0 -73052-3 0  9998,2 51741  53.2183  47.2479 0001147  67.2221 302.7388 15.73255281  4204,6727.738,91.53,350.374,348.831,0.0
51741.0,STARLINK-3520,PAYLOAD,2022-03-12 14:00:01,15.73190604,0.0001258,53.2177,45.5974,76.3005,22.6299,-0.00018876,-0.00027015,0.0,0 STARLINK-3520,1 51741U 22016AD  22071.58334491 -.00027015  00000-0 -18876-3 0  9998,2 51741  53.2177  45.5974 0001258  76.3005  22.6299 15.73190604  4253,6727.922,91.534,350.6330000000001,348.941,0.0
51741.0,STARLINK-3520,PAYLOAD,2022-03-12 22:00:00,15.73148301,0.0001069,53.2178,43.9458,86.0577,101.8552,0.00011471,0.00015473,0.0,0 STARLINK-3520,1 51741U 22016AD  22071.91667824  .00015473  00000-0  11471-3 0  9991,2 51741  53.2178  43.9458 0001069  86.0577 101.8552 15.73148301  4311,6728.043000000002,91.536,350.62699999999984,349.18800000000016,0.0
51741.0,STARLINK-3520,PAYLOAD,2022-03-13 14:00:01,15.73231251,0.0001118,53.2183,40.649,77.7573,287.9312,-0.00051079,-0.0007178999999999,0.0,0 STARLINK-3520,1 51741U 22016AD  22072.58334491 -.00071790  00000-0 -51079-3 0  9990,2 51741  53.2183  40.6490 0001118  77.7573 287.9312 15.73231251  4413,6727.806,91.531,350.423,348.9190000000001,0.0
51741.0,STARLINK-3520,PAYLOAD,2022-03-13 22:00:01,15.7320027,0.0001431999999999,53.2186,38.9985,86.6564,8.009,-0.00031378,-0.00044426,0.0,0 STARLINK-3520,1 51741U 22016AD  22072.91668981 -.00044426  00000-0 -31378-3 0  9997,2 51741  53.2186  38.9985 0001432  86.6564   8.0090 15.73200270  3717,6727.894,91.533,350.723,348.796,0.0
51741.0,STARLINK-3520,PAYLOAD,2022-03-14 04:00:00,15.73175843,0.0001541,53.2182,37.7631,80.6803,350.6313,0.00031769,0.00044154,0.0,0 STARLINK-3520,1 51741U 22016AD  22073.16667824  .00044154  00000-0  31769-3 0  9990,2 51741  53.2182  37.7631 0001541  80.6803 350.6313 15.73175843  4508,6727.964,91.535,350.866,348.792,0.0
51741.0,STARLINK-3520,PAYLOAD,2022-03-14 12:00:00,15.73265648,0.000145,53.2177,36.1132,82.4925,77.7614,8.4484e-05,0.00011285,0.0,0 STARLINK-3520,1 51741U 22016AD  22073.50001157  .00011285  00000-0  84484-4 0  9991,2 51741  53.2177  36.1132 0001450  82.4925  77.7614 15.73265648  4565,6727.708000000001,91.529,350.5490000000001,348.597,0.0
51741.0,STARLINK-3520,PAYLOAD,2022-03-14 14:00:01,15.73264249,0.0001423,53.2178,35.7002,86.9374,185.6337,0.00021062,0.00029123,0.0,0 STARLINK-3520,1 51741U 22016AD  22073.58335648  .00029123  00000-0  21062-3 0  9996,2 51741  53.2178  35.7002 0001423  86.9374 185.6337 15.73264249  3694,6727.712,91.529,350.534,348.62,0.0
51741.0,STARLINK-3520,PAYLOAD,2022-03-14 20:00:01,15.732845,0.0001262999999999,53.2179,34.462,98.6553,150.6069,0.00053583,0.00075533,0.0,0 STARLINK-3520,1 51741U 22016AD  22073.83334491  .00075533  00000-0  53583-3 0  9998,2 51741  53.2179  34.4620 0001263  98.6553 150.6069 15.73284500  4617,6727.654,91.528,350.369,348.67,0.0
51741.0,STARLINK-3520,PAYLOAD,2022-03-14 22:00:00,15.73210079,0.0001157,53.2182,34.0502,93.4643,267.9087,-0.00021624,-0.00030869,0.0,0 STARLINK-3520,1 51741U 22016AD  22073.91667824 -.00030869  00000-0 -21624-3 0  9992,2 51741  53.2182  34.0502 0001157  93.4643 267.9087 15.73210079  4624,6727.866,91.533,350.51,348.95300000000015,0.0
51741.0,STARLINK-3520,PAYLOAD,2022-03-15 02:00:01,15.73181756,0.0001245,53.2182,33.2249,86.3602,139.4862,8.1816e-05,0.00010868,0.0,0 STARLINK-3520,1 51741U 22016AD  22074.08334491  .00010868  00000-0  81816-4 0  9997,2 51741  53.2182  33.2249 0001245  86.3602 139.4862 15.73181756  4653,6727.946999999999,91.534,350.65,348.975,0.0
